{
  "radius": "7.0",
  "zipcode": "92887",
  "results":
  [
    {
      "zipcode": "92809",
      "zipcode_type": "STANDARD",
      "city": "ANAHEIM",
      "state": "CA",
      "location_type": "PRIMARY",
      "latitude": "33.86",
      "longitude": "-117.74",
      "location": "NA-US-CA-ANAHEIM",
      "decomissioned": "0",
      "distance":  "1.7960075587809228"
    },
    {
      "zipcode": "92808",
      "zipcode_type": "STANDARD",
      "city": "ANAHEIM",
      "state": "CA",
      "location_type": "PRIMARY",
      "latitude": "33.84",
      "longitude": "-117.73",
      "location": "NA-US-CA-ANAHEIM",
      "decomissioned": "0",
      "distance":  "2.8227409528346716"
    },
    {
      "zipcode": "92886",
      "zipcode_type": "STANDARD",
      "city": "YORBA LINDA",
      "state": "CA",
      "location_type": "PRIMARY",
      "latitude": "33.89",
      "longitude": "-117.78",
      "location": "NA-US-CA-YORBA LINDA",
      "decomissioned": "0",
      "distance":  "3.510008209335529"
    },
    {
      "zipcode": "91709",
      "zipcode_type": "STANDARD",
      "city": "CHINO HILLS",
      "state": "CA",
      "location_type": "PRIMARY",
      "latitude": "33.94",
      "longitude": "-117.72",
      "location": "NA-US-CA-CHINO HILLS",
      "decomissioned": "0",
      "distance":  "4.145421652529151"
    },
    {
      "zipcode": "92807",
      "zipcode_type": "STANDARD",
      "city": "ANAHEIM",
      "state": "CA",
      "location_type": "PRIMARY",
      "latitude": "33.85",
      "longitude": "-117.79",
      "location": "NA-US-CA-ANAHEIM",
      "decomissioned": "0",
      "distance":  "4.519457486241159"
    },
    {
      "zipcode": "92817",
      "zipcode_type": "PO BOX",
      "city": "ANAHEIM",
      "state": "CA",
      "location_type": "PRIMARY",
      "latitude": "33.85",
      "longitude": "-117.79",
      "location": "NA-US-CA-ANAHEIM",
      "decomissioned": "0",
      "distance":  "4.519457486241159"
    },
    {
      "zipcode": "92823",
      "zipcode_type": "STANDARD",
      "city": "BREA",
      "state": "CA",
      "location_type": "PRIMARY",
      "latitude": "33.92",
      "longitude": "-117.8",
      "location": "NA-US-CA-BREA",
      "decomissioned": "0",
      "distance":  "5.355973218580361"
    },
    {
      "zipcode": "92885",
      "zipcode_type": "PO BOX",
      "city": "YORBA LINDA",
      "state": "CA",
      "location_type": "PRIMARY",
      "latitude": "33.89",
      "longitude": "-117.82",
      "location": "NA-US-CA-YORBA LINDA",
      "decomissioned": "0",
      "distance":  "5.777190428276224"
    },
    {
      "zipcode": "92862",
      "zipcode_type": "STANDARD",
      "city": "ORANGE",
      "state": "CA",
      "location_type": "PRIMARY",
      "latitude": "33.79",
      "longitude": "-117.71",
      "location": "NA-US-CA-ORANGE",
      "decomissioned": "0",
      "distance":  "6.244835673064102"
    },
    {
      "zipcode": "92867",
      "zipcode_type": "STANDARD",
      "city": "ORANGE",
      "state": "CA",
      "location_type": "PRIMARY",
      "latitude": "33.81",
      "longitude": "-117.79",
      "location": "NA-US-CA-ORANGE",
      "decomissioned": "0",
      "distance":  "6.287095157556475"
    },
    {
      "zipcode": "92880",
      "zipcode_type": "STANDARD",
      "city": "CORONA",
      "state": "CA",
      "location_type": "PRIMARY",
      "latitude": "33.9",
      "longitude": "-117.61",
      "location": "NA-US-CA-CORONA",
      "decomissioned": "0",
      "distance":  "6.458641676046268"
    },
    {
      "zipcode": "92811",
      "zipcode_type": "PO BOX",
      "city": "ATWOOD",
      "state": "CA",
      "location_type": "PRIMARY",
      "latitude": "33.86",
      "longitude": "-117.83",
      "location": "NA-US-CA-ATWOOD",
      "decomissioned": "0",
      "distance":  "6.460086398727319"
    },
    {
      "zipcode": "92859",
      "zipcode_type": "PO BOX",
      "city": "ORANGE",
      "state": "CA",
      "location_type": "PRIMARY",
      "latitude": "33.8",
      "longitude": "-117.78",
      "location": "NA-US-CA-ORANGE",
      "decomissioned": "0",
      "distance":  "6.512262297105051"
    }
  ]
}

